SL-4 R/B                
1 39679U 14021B   25337.51022331  .00019126  00000+0  45499-3 0  9991
2 39679  51.6074  85.4364 0102582 113.0130 248.1711 15.36308154641478
ALOS-2                  
1 39766U 14029A   25337.95070205  .00004329  00000+0  58643-3 0  9991
2 39766  97.9237  72.9222 0001527 108.2088 251.9290 14.79455072622716
YAOGAN-29               
1 41038U 15069A   25337.98004742  .00000822  00000+0  10813-3 0  9998
2 41038  98.0228   1.1233 0000720   4.8914 355.2306 14.82866814541699
CZ-2C R/B               
1 43521U 18054D   25337.15080250  .00116887  00000+0  85487-3 0  9999
2 43521  35.1341 245.8114 0017526  42.6186 317.5903 15.71657055413544
H-2A R/B                
1 43682U 18084L   25337.90445123  .00033515  00000+0  91716-3 0  9995
2 43682  98.8775 170.1550 0028046 356.8357   3.2701 15.36886316391042
CSS (TIANHE)            
1 48274U 21035A   25337.74559546  .00027527  00000+0  35133-3 0  9991
2 48274  41.4679  71.2873 0010068 322.1315  37.8814 15.58598848262628
COSMOS 2550             
1 48865U 21056A   25338.18385848 -.00000073  00000+0  36208-5 0  9995
2 48865  67.1430 329.8143 0008365 268.8866  91.1330 15.33838375248816
CZ-2C R/B               
1 52794U 22058K   25337.31925112  .00035250  00000+0  64436-3 0  9998
2 52794  50.1901  91.5665 0046544 159.6094 200.6745 15.47789762195177
