CCSDS_OMM_VERS = 2.0
CREATION_DATE  = 
ORIGINATOR     = 

OBJECT_NAME    = SL-4 R/B
OBJECT_ID      = 2014-021B
CENTER_NAME    = EARTH
REF_FRAME      = TEME
TIME_SYSTEM    = UTC
MEAN_ELEMENT_THEORY = SGP/SGP4

EPOCH          = 2025-12-03T12:14:43.293984
MEAN_MOTION    = 15.36308154
ECCENTRICITY   = .01025828
INCLINATION    = 51.6074
RA_OF_ASC_NODE = 85.4364
ARG_OF_PERICENTER = 113.0130
MEAN_ANOMALY   = 248.1711

EPHEMERIS_TYPE = 0
CLASSIFICATION_TYPE = U
NORAD_CAT_ID   = 39679
ELEMENT_SET_NO = 999
REV_AT_EPOCH   = 64147
BSTAR          = .45498639E-3
MEAN_MOTION_DOT = .19126E-3
MEAN_MOTION_DDOT = 0

CCSDS_OMM_VERS = 2.0
CREATION_DATE  = 
ORIGINATOR     = 

OBJECT_NAME    = ALOS-2
OBJECT_ID      = 2014-029A
CENTER_NAME    = EARTH
REF_FRAME      = TEME
TIME_SYSTEM    = UTC
MEAN_ELEMENT_THEORY = SGP/SGP4

EPOCH          = 2025-12-03T22:49:00.657120
MEAN_MOTION    = 14.79455072
ECCENTRICITY   = .00015277
INCLINATION    = 97.9237
RA_OF_ASC_NODE = 72.9222
ARG_OF_PERICENTER = 108.2088
MEAN_ANOMALY   = 251.9290

EPHEMERIS_TYPE = 0
CLASSIFICATION_TYPE = U
NORAD_CAT_ID   = 39766
ELEMENT_SET_NO = 999
REV_AT_EPOCH   = 62271
BSTAR          = .58642782E-3
MEAN_MOTION_DOT = .4329E-4
MEAN_MOTION_DDOT = 0

CCSDS_OMM_VERS = 2.0
CREATION_DATE  = 
ORIGINATOR     = 

OBJECT_NAME    = YAOGAN-29
OBJECT_ID      = 2015-069A
CENTER_NAME    = EARTH
REF_FRAME      = TEME
TIME_SYSTEM    = UTC
MEAN_ELEMENT_THEORY = SGP/SGP4

EPOCH          = 2025-12-03T23:31:16.097088
MEAN_MOTION    = 14.82866814
ECCENTRICITY   = .00007208
INCLINATION    = 98.0228
RA_OF_ASC_NODE = 1.1233
ARG_OF_PERICENTER = 4.8914
MEAN_ANOMALY   = 355.2306

EPHEMERIS_TYPE = 0
CLASSIFICATION_TYPE = U
NORAD_CAT_ID   = 41038
ELEMENT_SET_NO = 999
REV_AT_EPOCH   = 54169
BSTAR          = .10813084E-3
MEAN_MOTION_DOT = .822E-5
MEAN_MOTION_DDOT = 0

CCSDS_OMM_VERS = 2.0
CREATION_DATE  = 
ORIGINATOR     = 

OBJECT_NAME    = CZ-2C R/B
OBJECT_ID      = 2018-054D
CENTER_NAME    = EARTH
REF_FRAME      = TEME
TIME_SYSTEM    = UTC
MEAN_ELEMENT_THEORY = SGP/SGP4

EPOCH          = 2025-12-03T03:37:09.336000
MEAN_MOTION    = 15.71657055
ECCENTRICITY   = .00175269
INCLINATION    = 35.1341
RA_OF_ASC_NODE = 245.8114
ARG_OF_PERICENTER = 42.6186
MEAN_ANOMALY   = 317.5903

EPHEMERIS_TYPE = 0
CLASSIFICATION_TYPE = U
NORAD_CAT_ID   = 43521
ELEMENT_SET_NO = 999
REV_AT_EPOCH   = 41354
BSTAR          = .85487E-3
MEAN_MOTION_DOT = .116887E-2
MEAN_MOTION_DDOT = 0

CCSDS_OMM_VERS = 2.0
CREATION_DATE  = 
ORIGINATOR     = 

OBJECT_NAME    = H-2A R/B
OBJECT_ID      = 2018-084L
CENTER_NAME    = EARTH
REF_FRAME      = TEME
TIME_SYSTEM    = UTC
MEAN_ELEMENT_THEORY = SGP/SGP4

EPOCH          = 2025-12-03T21:42:24.586272
MEAN_MOTION    = 15.36886316
ECCENTRICITY   = .00280461
INCLINATION    = 98.8775
RA_OF_ASC_NODE = 170.1550
ARG_OF_PERICENTER = 356.8357
MEAN_ANOMALY   = 3.2701

EPHEMERIS_TYPE = 0
CLASSIFICATION_TYPE = U
NORAD_CAT_ID   = 43682
ELEMENT_SET_NO = 999
REV_AT_EPOCH   = 39104
BSTAR          = .91715541E-3
MEAN_MOTION_DOT = .33515E-3
MEAN_MOTION_DDOT = 0

CCSDS_OMM_VERS = 2.0
CREATION_DATE  = 
ORIGINATOR     = 

OBJECT_NAME    = CSS (TIANHE)
OBJECT_ID      = 2021-035A
CENTER_NAME    = EARTH
REF_FRAME      = TEME
TIME_SYSTEM    = UTC
MEAN_ELEMENT_THEORY = SGP/SGP4

EPOCH          = 2025-12-03T17:53:39.447744
MEAN_MOTION    = 15.58598848
ECCENTRICITY   = .00100687
INCLINATION    = 41.4679
RA_OF_ASC_NODE = 71.2873
ARG_OF_PERICENTER = 322.1315
MEAN_ANOMALY   = 37.8814

EPHEMERIS_TYPE = 0
CLASSIFICATION_TYPE = U
NORAD_CAT_ID   = 48274
ELEMENT_SET_NO = 999
REV_AT_EPOCH   = 26262
BSTAR          = .35132982E-3
MEAN_MOTION_DOT = .27527E-3
MEAN_MOTION_DDOT = 0

CCSDS_OMM_VERS = 2.0
CREATION_DATE  = 
ORIGINATOR     = 

OBJECT_NAME    = COSMOS 2550
OBJECT_ID      = 2021-056A
CENTER_NAME    = EARTH
REF_FRAME      = TEME
TIME_SYSTEM    = UTC
MEAN_ELEMENT_THEORY = SGP/SGP4

EPOCH          = 2025-12-04T04:24:45.372672
MEAN_MOTION    = 15.33838375
ECCENTRICITY   = .0008365
INCLINATION    = 67.1430
RA_OF_ASC_NODE = 329.8143
ARG_OF_PERICENTER = 268.8866
MEAN_ANOMALY   = 91.1330

EPHEMERIS_TYPE = 0
CLASSIFICATION_TYPE = U
NORAD_CAT_ID   = 48865
ELEMENT_SET_NO = 999
REV_AT_EPOCH   = 24881
BSTAR          = .36208E-5
MEAN_MOTION_DOT = -.73E-6
MEAN_MOTION_DDOT = 0

CCSDS_OMM_VERS = 2.0
CREATION_DATE  = 
ORIGINATOR     = 

OBJECT_NAME    = CZ-2C R/B
OBJECT_ID      = 2022-058K
CENTER_NAME    = EARTH
REF_FRAME      = TEME
TIME_SYSTEM    = UTC
MEAN_ELEMENT_THEORY = SGP/SGP4

EPOCH          = 2025-12-03T07:39:43.296768
MEAN_MOTION    = 15.47789762
ECCENTRICITY   = .0046544
INCLINATION    = 50.1901
RA_OF_ASC_NODE = 91.5665
ARG_OF_PERICENTER = 159.6094
MEAN_ANOMALY   = 200.6745

EPHEMERIS_TYPE = 0
CLASSIFICATION_TYPE = U
NORAD_CAT_ID   = 52794
ELEMENT_SET_NO = 999
REV_AT_EPOCH   = 19517
BSTAR          = .64436E-3
MEAN_MOTION_DOT = .3525E-3
MEAN_MOTION_DDOT = 0

